[Satellite]
VERSION=1.1
NAME=SL-14 R/B
NICKNAME=SL-14 R/B
TLE1=1 20262U 89080C   20157.71946311 -.00000004  00000-0 -23550-5 0  9990
TLE2=2 20262  82.5958  81.4526 1235830 303.9354  45.0138 12.48941155397095
STATUS=0
